STARLINK-3419           
1 51463U 22010H   26068.87293523  .00002790  00000+0  19341-3 0  9993
2 51463  53.2160 278.2949 0001293 119.6861 240.4260 15.08823731226541
LEMUR-2-LLOYD           
1 60577U 24149DP  26068.46001441  .00012007  00000+0  80143-3 0  9995
2 60577  97.6780 149.6779 0005186 125.6096 234.5616 15.07168338 85367
